HAWK-11B                
1 62379U 24247C   26068.44730104  .00009093  00000+0  32842-3 0  9993
2 62379  45.0161 115.7610 0004690 333.0326  27.0314 15.28847070 67738
STARLINK-34603          
1 65220U 25176Y   26068.51923312  .00027017  00000+0  92132-3 0  9990
2 65220  53.1574 153.5708 0001343  71.6489 288.4657 15.30187827 33094
